[{"OBJECT_NAME":"STARLINK-6247","OBJECT_ID":"2023-088AQ","EPOCH":"2026-03-09T22:00:01.999584","MEAN_MOTION":15.10083965,"ECCENTRICITY":0.00019423,"INCLINATION":43.0003,"RA_OF_ASC_NODE":93.1443,"ARG_OF_PERICENTER":278.2112,"MEAN_ANOMALY":125.9123,"EPHEMERIS_TYPE":0,"CLASSIFICATION_TYPE":"U","NORAD_CAT_ID":57086,"ELEMENT_SET_NO":999,"REV_AT_EPOCH":572,"BSTAR":0.0036696584,"MEAN_MOTION_DOT":0.00061107,"MEAN_MOTION_DDOT":0},{"OBJECT_NAME":"CZ-6A DEB","OBJECT_ID":"2022-151ZP","EPOCH":"2026-03-09T04:30:54.238464","MEAN_MOTION":15.16398418,"ECCENTRICITY":0.00295026,"INCLINATION":98.6165,"RA_OF_ASC_NODE":143.0832,"ARG_OF_PERICENTER":204.3397,"MEAN_ANOMALY":155.6441,"EPHEMERIS_TYPE":0,"CLASSIFICATION_TYPE":"U","NORAD_CAT_ID":55867,"ELEMENT_SET_NO":999,"REV_AT_EPOCH":16441,"BSTAR":0.0090941605,"MEAN_MOTION_DOT":0.00182799,"MEAN_MOTION_DDOT":0}]
